NORAD_CAT_ID,OBJECT_NAME,OBJECT_TYPE,EPOCH,MEAN_MOTION,ECCENTRICITY,INCLINATION,RA_OF_ASC_NODE,ARG_OF_PERICENTER,MEAN_ANOMALY,BSTAR,MEAN_MOTION_DOT,MEAN_MOTION_DDOT,TLE_LINE0,TLE_LINE1,TLE_LINE2,SEMIMAJOR_AXIS,PERIOD,APOGEE,PERIGEE,DECAYED
52278.0,STARLINK-3780,PAYLOAD,2022-05-15 22:00:00,15.65242427,0.0001147,53.2173,255.0709,55.5887,309.8685,-0.0077435,-0.00717547,0.0,0 STARLINK-3780,1 52278U 22041T   22135.91667824 -.00717547  00000-0 -77435-2 0  9990,2 52278  53.2173 255.0709 0001147  55.5887 309.8685 15.65242427  1307,6750.679,91.999,373.318,371.769,0.0
52278.0,STARLINK-3780,PAYLOAD,2022-05-16 12:00:00,15.64349537,0.0001530999999999,53.2176,252.2222,35.9705,17.4274,-0.0080218,-0.00717326,0.0,0 STARLINK-3780,1 52278U 22041T   22136.50001157 -.00717326  00000-0 -80218-2 0  9995,2 52278  53.2176 252.2222 0001531  35.9705  17.4274 15.64349537  5137,6753.246999999999,92.051,376.146,374.078,0.0
52278.0,STARLINK-3780,PAYLOAD,2022-05-16 14:00:01,15.64220821,0.0001696999999999,53.2173,251.816,39.6283,123.3224,-0.0080414,-0.00715588,0.0,0 STARLINK-3780,1 52278U 22041T   22136.58334491 -.00715588  00000-0 -80414-2 0  9999,2 52278  53.2173 251.8160 0001697  39.6283 123.3224 15.64220821  1306,6753.618,92.059,376.629,374.337,0.0
52278.0,STARLINK-3780,PAYLOAD,2022-05-16 22:00:00,15.63712857,0.0001406,53.2172,250.19,52.6514,188.1261,-0.0082476,-0.00718898,0.0,0 STARLINK-3780,1 52278U 22041T   22136.91667824 -.00718898  00000-0 -82476-2 0  9992,2 52278  53.2172 250.1900 0001406  52.6514 188.1261 15.63712857  1303,6755.08,92.089,377.895,375.995,0.0
52278.0,STARLINK-3780,PAYLOAD,2022-05-17 12:00:00,15.62818838,0.0001631,53.2175,247.348,36.6764,248.8245,-0.0084971,-0.00715291,0.0,0 STARLINK-3780,1 52278U 22041T   22137.50001157 -.00715291  00000-0 -84971-2 0  9995,2 52278  53.2175 247.3480 0001631  36.6764 248.8245 15.62818838  5299,6757.656,92.141,380.62300000000016,378.419,0.0
52278.0,STARLINK-3780,PAYLOAD,2022-05-17 14:00:01,15.62693233,0.0001713,53.2174,246.9429,31.7107,2.9472,-0.0085858999999999,-0.00718896,0.0,0 STARLINK-3780,1 52278U 22041T   22137.58335648 -.00718896  00000-0 -85859-2 0  9998,2 52278  53.2174 246.9429 0001713  31.7107   2.9472 15.62693233  1303,6758.018,92.149,381.041,378.725,0.0
52278.0,STARLINK-3780,PAYLOAD,2022-05-17 22:00:01,15.62181537,0.0001474,53.2173,245.3203,41.9132,68.7347,-0.0087191,-0.00715753,0.0,0 STARLINK-3780,1 52278U 22041T   22137.91668981 -.00715753  00000-0 -87191-2 0  9994,2 52278  53.2173 245.3203 0001474  41.9132  68.7347 15.62181537  1300,6759.494000000002,92.179,382.355,380.362,0.0
52278.0,STARLINK-3780,PAYLOAD,2022-05-18 12:00:00,15.61287078,0.0001959,53.2175,242.4852,31.0403,121.049,-0.0089833,-0.00712528,0.0,0 STARLINK-3780,1 52278U 22041T   22138.50001157 -.00712528  00000-0 -89833-2 0  9998,2 52278  53.2175 242.4852 0001959  31.0403 121.0490 15.61287078  5446,6762.075,92.232,385.265,382.616,0.0
52278.0,STARLINK-3780,PAYLOAD,2022-05-18 14:00:01,15.61161376,0.0001844,53.2177,242.0808,34.812,225.9098,-0.0090705,-0.00715632,0.0,0 STARLINK-3780,1 52278U 22041T   22138.58334491 -.00715632  00000-0 -90705-2 0  9995,2 52278  53.2177 242.0808 0001844  34.8120 225.9098 15.61161376  1306,6762.438,92.239,385.55,383.056,0.0
52278.0,STARLINK-3780,PAYLOAD,2022-05-18 22:00:00,15.60652482,0.000137,53.2174,240.4619,45.5101,289.3622,-0.0092727,-0.00717057,0.0,0 STARLINK-3780,1 52278U 22041T   22138.91667824 -.00717057  00000-0 -92727-2 0  9990,2 52278  53.2174 240.4619 0001370  45.5101 289.3622 15.60652482  1306,6763.908,92.269,386.7,384.847,0.0
52278.0,STARLINK-3780,PAYLOAD,2022-05-19 14:00:01,15.59632255,0.0001932,53.2173,237.2299,31.5347,89.8646,-0.0096307,-0.00716225,0.0,0 STARLINK-3780,1 52278U 22041T   22139.58335648 -.00716225  00000-0 -96307-2 0  9994,2 52278  53.2173 237.2299 0001932  31.5347  89.8646 15.59632255  1307,6766.858,92.329,390.03,387.415,0.0
52278.0,STARLINK-3780,PAYLOAD,2022-05-19 22:00:00,15.59122519,0.0001636999999999,53.2174,235.6146,41.9731,151.6739,-0.0098293,-0.00716748,0.0,0 STARLINK-3780,1 52278U 22041T   22139.91667824 -.00716748  00000-0 -98293-2 0  9991,2 52278  53.2174 235.6146 0001637  41.9731 151.6739 15.59122519  5677,6768.331999999999,92.36,391.305,389.089,0.0
52278.0,STARLINK-3780,PAYLOAD,2022-05-20 14:00:01,15.58103215,0.0001885,53.2176,232.3902,28.3218,308.1102,-0.010233,-0.00717748,0.0,0 STARLINK-3780,1 52278U 22041T   22140.58334491 -.00717748  00000-0 -10233-1 0  9995,2 52278  53.2176 232.3902 0001885  28.3218 308.1102 15.58103215  1307,6771.284000000002,92.42,394.425,391.87300000000016,0.0
52278.0,STARLINK-3780,PAYLOAD,2022-05-20 22:00:00,15.57591862,0.0001686999999999,53.2175,230.7783,30.9453,15.9615,-0.010389,-0.00714936,0.0,0 STARLINK-3780,1 52278U 22041T   22140.91667824 -.00714936  00000-0 -10389-1 0  9999,2 52278  53.2175 230.7783 0001687  30.9453  15.9615 15.57591862  1305,6772.766,92.45,395.773,393.48800000000006,0.0
52278.0,STARLINK-3780,PAYLOAD,2022-05-21 06:00:00,15.57080814,0.0001952,53.2177,229.1677,29.3174,87.45100000000002,-0.010548,-0.00712324,0.0,0 STARLINK-3780,1 52278U 22041T   22141.25001157 -.00712324  00000-0 -10548-1 0  9994,2 52278  53.2177 229.1677 0001952  29.3174  87.4510 15.57080814  5872,6774.248000000001,92.481,397.435,394.79,0.0
52278.0,STARLINK-3780,PAYLOAD,2022-05-21 14:00:01,15.56571213,0.0002202,53.2176,227.5613,28.3197,157.7606,-0.010769,-0.00713426,0.0,0 STARLINK-3780,1 52278U 22041T   22141.58335648 -.00713426  00000-0 -10769-1 0  9994,2 52278  53.2176 227.5613 0002202  28.3197 157.7606 15.56571213  1304,6775.726,92.511,399.083,396.099,0.0
52278.0,STARLINK-3780,PAYLOAD,2022-05-21 22:00:00,15.56063812,0.0001617,53.2174,225.9529,42.2217,212.4291,-0.011056,-0.0071812,0.0,0 STARLINK-3780,1 52278U 22041T   22141.91667824 -.00718120  00000-0 -11056-1 0  9991,2 52278  53.2174 225.9529 0001617  42.2217 212.4291 15.56063812  1307,6777.199000000001,92.541,400.16,397.968,0.0
52278.0,STARLINK-3780,PAYLOAD,2022-05-22 06:00:00,15.55551724,0.000177,53.2176,224.3463,37.1693,285.505,-0.011185,-0.00713249,0.0,0 STARLINK-3780,1 52278U 22041T   22142.25001157 -.00713249  00000-0 -11185-1 0  9990,2 52278  53.2176 224.3463 0001770  37.1693 285.5050 15.55551724  6032,6778.686,92.572,401.751,399.351,0.0
52278.0,STARLINK-3780,PAYLOAD,2022-05-22 14:00:01,15.55042927,0.0001744,53.2174,222.7438,31.2232,358.8593,-0.011451,-0.00716278,0.0,0 STARLINK-3780,1 52278U 22041T   22142.58334491 -.00716278  00000-0 -11451-1 0  9997,2 52278  53.2174 222.7438 0001744  31.2232 358.8593 15.55042927  1300,6780.165,92.602,403.212,400.847,0.0
52278.0,STARLINK-3780,PAYLOAD,2022-05-22 22:00:01,15.54531717,0.0001732,53.2174,221.139,32.4436,64.502,-0.011626,-0.00713838,0.0,0 STARLINK-3780,1 52278U 22041T   22142.91668981 -.00713838  00000-0 -11626-1 0  9991,2 52278  53.2174 221.1390 0001732  32.4436  64.5020 15.54531717  1301,6781.651,92.632,404.691,402.342,0.0
52278.0,STARLINK-3780,PAYLOAD,2022-05-23 04:00:00,15.54148055,0.0001778,53.2173,219.9362,29.6909,26.8865,-0.01176,-0.00712104,0.0,0 STARLINK-3780,1 52278U 22041T   22143.16667824 -.00712104  00000-0 -11760-1 0  9998,2 52278  53.2173 219.9362 0001778  29.6909  26.8865 15.54148055  6174,6782.767,92.655,405.838,403.426,0.0
52278.0,STARLINK-3780,PAYLOAD,2022-05-23 14:00:01,15.53510729,0.0002031,53.2176,217.9371,32.5508,196.0851,-0.012029,-0.00711658,0.0,0 STARLINK-3780,1 52278U 22041T   22143.58334491 -.00711658  00000-0 -12029-1 0  9997,2 52278  53.2176 217.9371 0002031  32.5508 196.0851 15.53510729  1301,6784.621999999999,92.693,407.865,405.109,0.0
52278.0,STARLINK-3780,PAYLOAD,2022-05-23 22:00:01,15.53003689,0.0001523,53.2176,216.3357,42.9776,250.6817,-0.012356,-0.00716997,0.0,0 STARLINK-3780,1 52278U 22041T   22143.91668981 -.00716997  00000-0 -12356-1 0  9992,2 52278  53.2176 216.3357 0001523  42.9776 250.6817 15.53003689  1306,6786.099,92.724,408.997,406.93,0.0
52278.0,STARLINK-3780,PAYLOAD,2022-05-24 04:00:00,15.52618546,0.0001641999999999,53.2175,215.1359,43.7019,208.2106,-0.01243,-0.00711753,0.0,0 STARLINK-3780,1 52278U 22041T   22144.16667824 -.00711753  00000-0 -12430-1 0  9993,2 52278  53.2175 215.1359 0001642  43.7019 208.2106 15.52618546  6336,6787.221,92.747,410.201,407.972,0.0
52278.0,STARLINK-3780,PAYLOAD,2022-05-24 12:11:29,15.53116607,0.0001786,53.2155,213.4854,30.5206,329.591,-0.0050905,-0.00312337,0.0,0 STARLINK-3780,1 52278U 22041T   22144.50798134 -.00312337  00000-0 -50905-2 0  9995,2 52278  53.2155 213.4854 0001786  30.5206 329.5910 15.53116607  6383,6785.77,92.717,408.847,406.423,0.0
52278.0,STARLINK-3780,PAYLOAD,2022-05-24 22:00:00,15.51470915,0.0001808,53.2175,211.5438,33.3815,91.4132,-0.012952,-0.0071153,0.0,0 STARLINK-3780,1 52278U 22041T   22144.91667824 -.00711530  00000-0 -12952-1 0  9998,2 52278  53.2175 211.5438 0001808  33.3815  91.4132 15.51470915  6445,6790.568,92.815,413.66,411.205,0.0
52278.0,STARLINK-3780,PAYLOAD,2022-05-25 14:00:01,15.50412937,0.0001922,53.2175,208.3563,35.8253,213.3789,-0.011663,-0.00623852,0.0,0 STARLINK-3780,1 52278U 22041T   22145.58334491 -.00623852  00000-0 -11663-1 0  9990,2 52278  53.2175 208.3563 0001922  35.8253 213.3789 15.50412937  1300,6793.656999999997,92.878,416.827,414.216,0.0
52278.0,STARLINK-3780,PAYLOAD,2022-05-25 22:00:00,15.49890922,0.0001612,53.2175,206.7613,43.3492,267.1337,-0.00017788,-0.00010536,0.0,0 STARLINK-3780,1 52278U 22041T   22145.91667824 -.00010536  00000-0 -17788-3 0  9991,2 52278  53.2175 206.7613 0001612  43.3492 267.1337 15.49890922  6609,6795.182,92.91,418.142,415.951,0.0
52278.0,STARLINK-3780,PAYLOAD,2022-05-26 12:08:43,15.50720964,0.0002526,53.2163,203.9323,37.1824,322.9361,-0.002701,-0.00155307,0.0,0 STARLINK-3780,1 52278U 22041T   22146.50605549 -.00155307  00000-0 -27010-2 0  9997,2 52278  53.2163 203.9323 0002526  37.1824 322.9361 15.50720964  6694,6792.757,92.86,416.338,412.906,0.0
